[{"OBJECT_NAME":"STARLINK-32461","OBJECT_ID":"2024-195Q","EPOCH":"2026-03-09T12:07:18.702912","MEAN_MOTION":15.30188031,"ECCENTRICITY":0.0001184,"INCLINATION":53.1612,"RA_OF_ASC_NODE":156.184,"ARG_OF_PERICENTER":89.5143,"MEAN_ANOMALY":270.5993,"EPHEMERIS_TYPE":0,"CLASSIFICATION_TYPE":"U","NORAD_CAT_ID":61701,"ELEMENT_SET_NO":999,"REV_AT_EPOCH":7715,"BSTAR":3.2239059e-5,"MEAN_MOTION_DOT":5.95e-6,"MEAN_MOTION_DDOT":0},{"OBJECT_NAME":"KSLV-II R\/B","OBJECT_ID":"2023-072H","EPOCH":"2026-03-09T20:13:26.441760","MEAN_MOTION":15.33109439,"ECCENTRICITY":0.00241884,"INCLINATION":97.4991,"RA_OF_ASC_NODE":274.152,"ARG_OF_PERICENTER":318.2938,"MEAN_ANOMALY":41.646,"EPHEMERIS_TYPE":0,"CLASSIFICATION_TYPE":"U","NORAD_CAT_ID":56750,"ELEMENT_SET_NO":999,"REV_AT_EPOCH":15516,"BSTAR":0.00028309532,"MEAN_MOTION_DOT":9.057e-5,"MEAN_MOTION_DDOT":0}]
